     3.02           N: GNSS NAV DATA    M: Mixed            RINEX VERSION / TYPE
RTKCONV 2.4.3 b33                       20200930 083202 UTC PGM / RUN BY / DATE 
log: C:\Users\204\Desktop\r.txt                             COMMENT             
format: u-blox                                              COMMENT             
                                                            END OF HEADER       
C 9 2020  9 30  8  0  0  .842759269290E-03  .241415776259E-10  .000000000000E+00
      .100000000000E+01 -.743125000000E+02  .536450916763E-09  .309998636372E+01
     -.216905027628E-05  .720742053818E-02  .288789160550E-04  .649343874931E+04
      .288000000000E+06  .139698386192E-07  .310985109390E+01  .103842467070E-06
      .951418160397E+00 -.648390625000E+03 -.238141706164E+01 -.150899142698E-08
      .308584282345E-09  .000000000000E+00  .769000000000E+03  .100000000000E+01
      .200000000000E+01  .000000000000E+00  .680000000000E-08  .350000000000E-08
      .289800000000E+06  .000000000000E+00
C16 2020  9 30  8  0  0 -.591884017922E-03 -.256061838400E-11  .000000000000E+00
      .100000000000E+01 -.120562500000E+03  .481805783431E-09 -.265624299372E+01
     -.372994691133E-05  .306988006923E-02  .286968424916E-04  .649298698807E+04
      .288000000000E+06 -.108964741230E-06  .305568387926E+01  .824220478535E-07
      .961862839574E+00 -.633312500000E+03 -.255953753140E+01 -.147756154637E-08
      .205365697163E-09  .000000000000E+00  .769000000000E+03  .100000000000E+01
      .200000000000E+01  .000000000000E+00 -.250000000000E-08  .430000000000E-08
      .289800000000E+06  .000000000000E+00
C 8 2020  9 30  8  0  0 -.566559145227E-03 -.316600079486E-10  .000000000000E+00
      .100000000000E+01  .377546875000E+03  .132326940520E-08 -.202930031639E+00
      .121635384858E-04  .510859128553E-02  .245403498411E-05  .649330662155E+04
      .288000000000E+06 -.128988176584E-06  .947045245173E+00 -.109896063805E-06
      .103655660595E+01  .176031250000E+03 -.280020752573E+01 -.230045296596E-08
      .662170439200E-09  .000000000000E+00  .769000000000E+03  .100000000000E+01
      .200000000000E+01  .000000000000E+00  .111000000000E-07 -.900000000000E-09
      .289800000000E+06  .000000000000E+00
C 3 2020  9 30  8  0  0  .797608867288E-03  .193622895495E-11  .000000000000E+00
      .000000000000E+00 -.733343750000E+03  .230938190931E-08  .293523852613E+01
     -.238842330873E-04  .813815393485E-03  .118622556329E-04  .649327120018E+04
      .288000000000E+06  .409781932831E-07 -.648652195836E+00  .172294676304E-07
      .777495769591E-01 -.356437500000E+03  .179341634925E+01 -.122969407884E-08
      .214294640518E-11  .000000000000E+00  .769000000000E+03  .200000000000E+01
      .200000000000E+01  .000000000000E+00  .230000000000E-08 -.810000000000E-08
      .289800000000E+06  .000000000000E+00
C 2 2020  9 30  8  0  0  .801761634648E-03 -.263193911110E-10  .000000000000E+00
      .100000000000E+01 -.790250000000E+03  .207865801302E-08 -.224060846378E+01
     -.258637592196E-04  .611114315689E-03  .569736585021E-05  .649342487907E+04
      .288000000000E+06  .530853867531E-07 -.762498116307E+00 -.456348061562E-07
      .722781726417E-01 -.169625000000E+03  .339452379006E+00 -.101325649191E-08
     -.439304013061E-10  .000000000000E+00  .769000000000E+03  .200000000000E+01
      .200000000000E+01  .000000000000E+00  .110000000000E-08 -.138000000000E-07
      .289800000000E+06  .000000000000E+00
C 1 2020  9 30  8  0  0 -.915756681934E-04  .347739614881E-10  .000000000000E+00
      .100000000000E+01 -.917906250000E+03  .245045921432E-08  .114903222423E+01
     -.299587845802E-04  .809088349342E-03 -.772392377257E-05  .649339969444E+04
      .288000000000E+06  .898726284504E-07 -.101293324096E+01 -.155530869961E-06
      .100039929533E+00  .245078125000E+03 -.174480825696E+01 -.156042214070E-08
     -.742888087128E-10  .000000000000E+00  .769000000000E+03  .200000000000E+01
      .200000000000E+01  .000000000000E+00 -.510000000000E-08 -.102000000000E-07
      .289800000000E+06  .000000000000E+00
C 4 2020  9 30  8  0  0 -.364562845789E-03  .340891759265E-10  .000000000000E+00
      .100000000000E+01 -.970015625000E+03  .179614624527E-08  .178884318102E+01
     -.314796343446E-04  .634614378214E-03  .506546348333E-05  .649342435646E+04
      .288000000000E+06  .200234353542E-07 -.794973169961E+00 -.796280801296E-07
      .834666022962E-01 -.145937500000E+03 -.233255454741E+01 -.974326298887E-09
     -.346443002170E-10  .000000000000E+00  .769000000000E+03  .200000000000E+01
      .200000000000E+01  .000000000000E+00  .580000000000E-08 -.840000000000E-08
      .289800000000E+06  .000000000000E+00
G32 2020  9 30 10  0  0  .352375209332E-03  .432009983342E-11  .000000000000E+00
      .210000000000E+02 -.379062500000E+02  .413017203824E-08 -.251408008043E+01
     -.183470547199E-05  .417981122155E-02  .119693577290E-04  .515359447861E+04
      .295200000000E+06 -.353902578354E-07  .289911635042E+01 -.223517417908E-07
      .957461252619E+00  .146500000000E+03 -.244616197713E+01 -.771067832356E-08
     -.150006248362E-10  .100000000000E+01  .212500000000E+04  .000000000000E+00
      .200000000000E+01  .000000000000E+00  .465661287308E-09  .210000000000E+02
      .289836000000E+06  .400000000000E+01
G31 2020  9 30  9 59 44 -.719418749213E-04 -.238742359215E-11  .000000000000E+00
      .130000000000E+02  .617500000000E+02  .477627037940E-08 -.111226265752E+00
      .338628888130E-05  .970788742416E-02  .619143247604E-05  .515366159058E+04
      .295184000000E+06  .115483999252E-06 -.230385810437E+01  .931322574615E-08
      .957034038115E+00  .254937500000E+03  .166116277490E+00 -.840034990829E-08
      .515735768179E-09  .100000000000E+01  .212500000000E+04  .000000000000E+00
      .200000000000E+01  .000000000000E+00 -.130385160446E-07  .130000000000E+02
      .289836000000E+06  .400000000000E+01
C12 2020  9 30  8  0  0  .533305690624E-03  .175885972453E-10  .000000000000E+00
      .100000000000E+01  .602812500000E+02  .322942023260E-08 -.933018264367E+00
      .294391065836E-05  .124634639360E-02  .117449089885E-04  .528262529755E+04
      .288000000000E+06 -.309199094772E-06  .128016469131E+00 -.209081918001E-06
      .989420618872E+00  .135609375000E+03 -.220993618455E+01 -.659956061248E-08
      .198936857947E-09  .000000000000E+00  .769000000000E+03  .100000000000E+01
      .200000000000E+01  .000000000000E+00  .310000000000E-08 -.200000000000E-09
      .289830000000E+06  .000000000000E+00
C 7 2020  9 30  8  0  0 -.571585260332E-04 -.350146578398E-10  .000000000000E+00
      .400000000000E+01 -.414031250000E+03  .211723104831E-08  .170506961463E+01
     -.132727436721E-04  .820252299309E-02  .218395143747E-06  .649325143242E+04
      .288000000000E+06  .151339918375E-06 -.120612038888E+01 -.153668224812E-07
      .894784558043E+00  .213687500000E+03 -.254451993415E+01 -.277440127924E-08
     -.760388816103E-09  .000000000000E+00  .769000000000E+03  .100000000000E+01
      .200000000000E+01  .000000000000E+00  .148000000000E-07  .700000000000E-09
      .289830000000E+06  .000000000000E+00
